KUIPER-00136            
1 65962U 25228R   26015.83337963 -.00016660  00000+0 -18612-2 0  9993
2 65962  51.8990 222.1062 0004784 169.4846  79.5722 14.86092083  5264
KUIPER-00137            
1 65963U 25228S   26015.83337963 -.00044671  00000+0 -39968-2 0  9994
2 65963  51.8953 220.0323 0008143 118.7783 224.2295 14.95445018  5805
KUIPER-00138            
1 65964U 25228T   26015.83337963 -.00035910  00000+0 -24627-2 0  9997
2 65964  51.8921 218.4641 0011177 152.1043 238.8823 15.05424244  5591
KUIPER-00140            
1 65965U 25228U   26015.83337963 -.00050152  00000+0 -44421-2 0  9997
2 65965  51.8928 220.2300 0009625 158.8691 335.7225 14.95881490  5567
KUIPER-00141            
1 65966U 25228V   26015.83337963 -.00012077  00000+0 -67667-3 0  9990
2 65966  51.8935 217.2353 0002687 219.9903 344.1138 15.12110750  4779
KUIPER-00146            
1 65967U 25228W   26015.83337963 -.00027929  00000+0 -20324-2 0  9991
2 65967  51.8914 218.5036 0002876 200.5229  86.5738 15.03143632  4752
KUIPER-00149            
1 65968U 25228X   26015.83337963 -.00002397  00000+0 -85783-4 0  9996
2 65968  51.8829 216.2756 0004384 148.9206 231.6419 15.23266000  5474
KUIPER-00154            
1 65969U 25228Y   26015.83337963  .00007540  00000+0  24661-3 0  9997
2 65969  51.8780 215.9408 0005725 122.2426  58.9481 15.32693319  5443
