<?xml version="1.0" encoding="UTF-8"?>
<ndm xmlns:xsi="http://www.w3.org/2001/XMLSchema-instance" xsi:noNamespaceSchemaLocation="https://sanaregistry.org/r/ndmxml_unqualified/ndmxml-2.0.0-master-2.0.xsd">
<omm id="CCSDS_OMM_VERS" version="2.0">
<header><CREATION_DATE/><ORIGINATOR/></header><body><segment><metadata><OBJECT_NAME>KUIPER-00136</OBJECT_NAME><OBJECT_ID>2025-228R</OBJECT_ID><CENTER_NAME>EARTH</CENTER_NAME><REF_FRAME>TEME</REF_FRAME><TIME_SYSTEM>UTC</TIME_SYSTEM><MEAN_ELEMENT_THEORY>SGP4</MEAN_ELEMENT_THEORY></metadata><data><meanElements><EPOCH>2026-01-15T20:00:04.000032</EPOCH><MEAN_MOTION>14.86092083</MEAN_MOTION><ECCENTRICITY>.0004784</ECCENTRICITY><INCLINATION>51.8990</INCLINATION><RA_OF_ASC_NODE>222.1062</RA_OF_ASC_NODE><ARG_OF_PERICENTER>169.4846</ARG_OF_PERICENTER><MEAN_ANOMALY>79.5722</MEAN_ANOMALY></meanElements><tleParameters><EPHEMERIS_TYPE>0</EPHEMERIS_TYPE><CLASSIFICATION_TYPE>U</CLASSIFICATION_TYPE><NORAD_CAT_ID>65962</NORAD_CAT_ID><ELEMENT_SET_NO>999</ELEMENT_SET_NO><REV_AT_EPOCH>526</REV_AT_EPOCH><BSTAR>-.18612E-2</BSTAR><MEAN_MOTION_DOT>-.1666E-3</MEAN_MOTION_DOT><MEAN_MOTION_DDOT>0</MEAN_MOTION_DDOT></tleParameters></data></segment></body></omm>
<omm id="CCSDS_OMM_VERS" version="2.0">
<header><CREATION_DATE/><ORIGINATOR/></header><body><segment><metadata><OBJECT_NAME>KUIPER-00137</OBJECT_NAME><OBJECT_ID>2025-228S</OBJECT_ID><CENTER_NAME>EARTH</CENTER_NAME><REF_FRAME>TEME</REF_FRAME><TIME_SYSTEM>UTC</TIME_SYSTEM><MEAN_ELEMENT_THEORY>SGP4</MEAN_ELEMENT_THEORY></metadata><data><meanElements><EPOCH>2026-01-15T20:00:04.000032</EPOCH><MEAN_MOTION>14.95445018</MEAN_MOTION><ECCENTRICITY>.0008143</ECCENTRICITY><INCLINATION>51.8953</INCLINATION><RA_OF_ASC_NODE>220.0323</RA_OF_ASC_NODE><ARG_OF_PERICENTER>118.7783</ARG_OF_PERICENTER><MEAN_ANOMALY>224.2295</MEAN_ANOMALY></meanElements><tleParameters><EPHEMERIS_TYPE>0</EPHEMERIS_TYPE><CLASSIFICATION_TYPE>U</CLASSIFICATION_TYPE><NORAD_CAT_ID>65963</NORAD_CAT_ID><ELEMENT_SET_NO>999</ELEMENT_SET_NO><REV_AT_EPOCH>580</REV_AT_EPOCH><BSTAR>-.39968E-2</BSTAR><MEAN_MOTION_DOT>-.44671E-3</MEAN_MOTION_DOT><MEAN_MOTION_DDOT>0</MEAN_MOTION_DDOT></tleParameters></data></segment></body></omm>
<omm id="CCSDS_OMM_VERS" version="2.0">
<header><CREATION_DATE/><ORIGINATOR/></header><body><segment><metadata><OBJECT_NAME>KUIPER-00138</OBJECT_NAME><OBJECT_ID>2025-228T</OBJECT_ID><CENTER_NAME>EARTH</CENTER_NAME><REF_FRAME>TEME</REF_FRAME><TIME_SYSTEM>UTC</TIME_SYSTEM><MEAN_ELEMENT_THEORY>SGP4</MEAN_ELEMENT_THEORY></metadata><data><meanElements><EPOCH>2026-01-15T20:00:04.000032</EPOCH><MEAN_MOTION>15.05424244</MEAN_MOTION><ECCENTRICITY>.0011177</ECCENTRICITY><INCLINATION>51.8921</INCLINATION><RA_OF_ASC_NODE>218.4641</RA_OF_ASC_NODE><ARG_OF_PERICENTER>152.1043</ARG_OF_PERICENTER><MEAN_ANOMALY>238.8823</MEAN_ANOMALY></meanElements><tleParameters><EPHEMERIS_TYPE>0</EPHEMERIS_TYPE><CLASSIFICATION_TYPE>U</CLASSIFICATION_TYPE><NORAD_CAT_ID>65964</NORAD_CAT_ID><ELEMENT_SET_NO>999</ELEMENT_SET_NO><REV_AT_EPOCH>559</REV_AT_EPOCH><BSTAR>-.24627E-2</BSTAR><MEAN_MOTION_DOT>-.3591E-3</MEAN_MOTION_DOT><MEAN_MOTION_DDOT>0</MEAN_MOTION_DDOT></tleParameters></data></segment></body></omm>
<omm id="CCSDS_OMM_VERS" version="2.0">
<header><CREATION_DATE/><ORIGINATOR/></header><body><segment><metadata><OBJECT_NAME>KUIPER-00140</OBJECT_NAME><OBJECT_ID>2025-228U</OBJECT_ID><CENTER_NAME>EARTH</CENTER_NAME><REF_FRAME>TEME</REF_FRAME><TIME_SYSTEM>UTC</TIME_SYSTEM><MEAN_ELEMENT_THEORY>SGP4</MEAN_ELEMENT_THEORY></metadata><data><meanElements><EPOCH>2026-01-15T20:00:04.000032</EPOCH><MEAN_MOTION>14.95881490</MEAN_MOTION><ECCENTRICITY>.0009625</ECCENTRICITY><INCLINATION>51.8928</INCLINATION><RA_OF_ASC_NODE>220.2300</RA_OF_ASC_NODE><ARG_OF_PERICENTER>158.8691</ARG_OF_PERICENTER><MEAN_ANOMALY>335.7225</MEAN_ANOMALY></meanElements><tleParameters><EPHEMERIS_TYPE>0</EPHEMERIS_TYPE><CLASSIFICATION_TYPE>U</CLASSIFICATION_TYPE><NORAD_CAT_ID>65965</NORAD_CAT_ID><ELEMENT_SET_NO>999</ELEMENT_SET_NO><REV_AT_EPOCH>556</REV_AT_EPOCH><BSTAR>-.44421E-2</BSTAR><MEAN_MOTION_DOT>-.50152E-3</MEAN_MOTION_DOT><MEAN_MOTION_DDOT>0</MEAN_MOTION_DDOT></tleParameters></data></segment></body></omm>
<omm id="CCSDS_OMM_VERS" version="2.0">
<header><CREATION_DATE/><ORIGINATOR/></header><body><segment><metadata><OBJECT_NAME>KUIPER-00141</OBJECT_NAME><OBJECT_ID>2025-228V</OBJECT_ID><CENTER_NAME>EARTH</CENTER_NAME><REF_FRAME>TEME</REF_FRAME><TIME_SYSTEM>UTC</TIME_SYSTEM><MEAN_ELEMENT_THEORY>SGP4</MEAN_ELEMENT_THEORY></metadata><data><meanElements><EPOCH>2026-01-15T20:00:04.000032</EPOCH><MEAN_MOTION>15.12110750</MEAN_MOTION><ECCENTRICITY>.0002687</ECCENTRICITY><INCLINATION>51.8935</INCLINATION><RA_OF_ASC_NODE>217.2353</RA_OF_ASC_NODE><ARG_OF_PERICENTER>219.9903</ARG_OF_PERICENTER><MEAN_ANOMALY>344.1138</MEAN_ANOMALY></meanElements><tleParameters><EPHEMERIS_TYPE>0</EPHEMERIS_TYPE><CLASSIFICATION_TYPE>U</CLASSIFICATION_TYPE><NORAD_CAT_ID>65966</NORAD_CAT_ID><ELEMENT_SET_NO>999</ELEMENT_SET_NO><REV_AT_EPOCH>477</REV_AT_EPOCH><BSTAR>-.67667E-3</BSTAR><MEAN_MOTION_DOT>-.12077E-3</MEAN_MOTION_DOT><MEAN_MOTION_DDOT>0</MEAN_MOTION_DDOT></tleParameters></data></segment></body></omm>
<omm id="CCSDS_OMM_VERS" version="2.0">
<header><CREATION_DATE/><ORIGINATOR/></header><body><segment><metadata><OBJECT_NAME>KUIPER-00146</OBJECT_NAME><OBJECT_ID>2025-228W</OBJECT_ID><CENTER_NAME>EARTH</CENTER_NAME><REF_FRAME>TEME</REF_FRAME><TIME_SYSTEM>UTC</TIME_SYSTEM><MEAN_ELEMENT_THEORY>SGP4</MEAN_ELEMENT_THEORY></metadata><data><meanElements><EPOCH>2026-01-15T20:00:04.000032</EPOCH><MEAN_MOTION>15.03143632</MEAN_MOTION><ECCENTRICITY>.0002876</ECCENTRICITY><INCLINATION>51.8914</INCLINATION><RA_OF_ASC_NODE>218.5036</RA_OF_ASC_NODE><ARG_OF_PERICENTER>200.5229</ARG_OF_PERICENTER><MEAN_ANOMALY>86.5738</MEAN_ANOMALY></meanElements><tleParameters><EPHEMERIS_TYPE>0</EPHEMERIS_TYPE><CLASSIFICATION_TYPE>U</CLASSIFICATION_TYPE><NORAD_CAT_ID>65967</NORAD_CAT_ID><ELEMENT_SET_NO>999</ELEMENT_SET_NO><REV_AT_EPOCH>475</REV_AT_EPOCH><BSTAR>-.20324E-2</BSTAR><MEAN_MOTION_DOT>-.27929E-3</MEAN_MOTION_DOT><MEAN_MOTION_DDOT>0</MEAN_MOTION_DDOT></tleParameters></data></segment></body></omm>
<omm id="CCSDS_OMM_VERS" version="2.0">
<header><CREATION_DATE/><ORIGINATOR/></header><body><segment><metadata><OBJECT_NAME>KUIPER-00149</OBJECT_NAME><OBJECT_ID>2025-228X</OBJECT_ID><CENTER_NAME>EARTH</CENTER_NAME><REF_FRAME>TEME</REF_FRAME><TIME_SYSTEM>UTC</TIME_SYSTEM><MEAN_ELEMENT_THEORY>SGP4</MEAN_ELEMENT_THEORY></metadata><data><meanElements><EPOCH>2026-01-15T20:00:04.000032</EPOCH><MEAN_MOTION>15.23266000</MEAN_MOTION><ECCENTRICITY>.0004384</ECCENTRICITY><INCLINATION>51.8829</INCLINATION><RA_OF_ASC_NODE>216.2756</RA_OF_ASC_NODE><ARG_OF_PERICENTER>148.9206</ARG_OF_PERICENTER><MEAN_ANOMALY>231.6419</MEAN_ANOMALY></meanElements><tleParameters><EPHEMERIS_TYPE>0</EPHEMERIS_TYPE><CLASSIFICATION_TYPE>U</CLASSIFICATION_TYPE><NORAD_CAT_ID>65968</NORAD_CAT_ID><ELEMENT_SET_NO>999</ELEMENT_SET_NO><REV_AT_EPOCH>547</REV_AT_EPOCH><BSTAR>-.85783E-4</BSTAR><MEAN_MOTION_DOT>-.2397E-4</MEAN_MOTION_DOT><MEAN_MOTION_DDOT>0</MEAN_MOTION_DDOT></tleParameters></data></segment></body></omm>
<omm id="CCSDS_OMM_VERS" version="2.0">
<header><CREATION_DATE/><ORIGINATOR/></header><body><segment><metadata><OBJECT_NAME>KUIPER-00154</OBJECT_NAME><OBJECT_ID>2025-228Y</OBJECT_ID><CENTER_NAME>EARTH</CENTER_NAME><REF_FRAME>TEME</REF_FRAME><TIME_SYSTEM>UTC</TIME_SYSTEM><MEAN_ELEMENT_THEORY>SGP4</MEAN_ELEMENT_THEORY></metadata><data><meanElements><EPOCH>2026-01-15T20:00:04.000032</EPOCH><MEAN_MOTION>15.32693319</MEAN_MOTION><ECCENTRICITY>.0005725</ECCENTRICITY><INCLINATION>51.8780</INCLINATION><RA_OF_ASC_NODE>215.9408</RA_OF_ASC_NODE><ARG_OF_PERICENTER>122.2426</ARG_OF_PERICENTER><MEAN_ANOMALY>58.9481</MEAN_ANOMALY></meanElements><tleParameters><EPHEMERIS_TYPE>0</EPHEMERIS_TYPE><CLASSIFICATION_TYPE>U</CLASSIFICATION_TYPE><NORAD_CAT_ID>65969</NORAD_CAT_ID><ELEMENT_SET_NO>999</ELEMENT_SET_NO><REV_AT_EPOCH>544</REV_AT_EPOCH><BSTAR>.24661E-3</BSTAR><MEAN_MOTION_DOT>.754E-4</MEAN_MOTION_DOT><MEAN_MOTION_DDOT>0</MEAN_MOTION_DDOT></tleParameters></data></segment></body></omm>

</ndm>
